{
  "norad_id": 49409,
  "name": "STARLINK-3075",
  "history": [
    {
      "epoch": "2026-03-28T20:52:50.312064Z",
      "apogee_km": 540.6536886145996,
      "perigee_km": 538.8308274301116,
      "latitude_deg": 4.213848019263943e-05,
      "longitude_deg": 3.5234243105837213,
      "height_km": 540.5561626967822,
      "semi_major_axis_km": 6917.879258022355,
      "eccentricity": 0.00013175,
      "inclination_deg": 53.2176,
      "raan_deg": 143.0173,
      "arg_perigee_deg": 84.8455,
      "mean_anomaly_deg": 275.2688,
      "mean_motion_rev_day": 15.0884037
    }
  ]
}